[
    {
        "Altitude(m)": 611965.1941609989,
        "Argument of Periapsis(deg)": 0.0,
        "Eccentricity": 0.0,
        "Inclination(deg)": 60.0,
        "Latitude(deg)": 59.1401882546183,
        "Longitude(deg)": -6.030367952506599,
        "Mean Anomaly(deg)": 81.8182,
        "RAAN(deg)": 20.0,
        "Satellite Name": "Test1 93",
        "Satellite Number": 93,
        "Semi-Major Axis(m)": 6980739.136638005,
        "Time(s)": 0
    },
    {
        "Altitude(m)": 611995.8203656247,
        "Argument of Periapsis(deg)": 0.00010418945913296404,
        "Eccentricity": 0.0,
        "Inclination(deg)": 60.0,
        "Latitude(deg)": 59.28329043801049,
        "Longitude(deg)": -4.897005909934646,
        "Mean Anomaly(deg)": 82.43830614546184,
        "RAAN(deg)": 19.99957995086026,
        "Satellite Name": "Test1 93",
        "Satellite Number": 93,
        "Semi-Major Axis(m)": 6980739.136638005,
        "Time(s)": 10
    }
]